#aV2012 12 24  0  0  0.00000000     288 DD+AD WGS84 FIT  NGA
## 1720  86400.00000000   300.00000000 56285 0.0000000000000
+   31     1  2  3  4  5  6  7  8  9 10 11 12 13 14 15 16 17
+         18 19 20 21 22 23 24 25 26 28 29 30 31 32  0  0  0
+          0  0  0  0  0  0  0  0  0  0  0  0  0  0  0  0  0
+          0  0  0  0  0  0  0  0  0  0  0  0  0  0  0  0  0
+          0  0  0  0  0  0  0  0  0  0  0  0  0  0  0  0  0
++         2  2  2  2  2  2  2  2  2  2  2  2  2  2  2  2  2
++         2  2  2  2  2  2  2  2  2  2  2  2  2  2  2  0  0
++         0  0  0  0  0  0  0  0  0  0  0  0  0  0  0  0  0
++         0  0  0  0  0  0  0  0  0  0  0  0  0  0  0  0  0
++         0  0  0  0  0  0  0  0  0  0  0  0  0  0  0  0  0
%c cc cc ccc ccc cccc cccc cccc cccc ccccc ccccc ccccc ccccc
%c cc cc ccc ccc cccc cccc cccc cccc ccccc ccccc ccccc ccccc
%f  0.0000000  0.000000000  0.00000000000  0.000000000000000
%f  0.0000000  0.000000000  0.00000000000  0.000000000000000
%i    0    0    0    0      0      0      0      0         0
%i    0    0    0    0      0      0      0      0         0
/*      NGA, ST. LOUIS,MO.                                  
/*   EPHEMERIS COMPUTED FROM  1 DAYS OF DATA
/*   EPOCHA SMOOTHER  
/* CCCCCCCCCCCCCCCCCCCCCCCCCCCCCCCCCCCCCCCCCCCCCCCCCCCCCCCCC
*  2012 12 24  8 25  0.00000000                                                 
P  1  13702.331517 -22471.228389  -3332.564198    289.247318                    
V  1   4815.908180  -1677.298167  31395.359460      0.021366                    
P  2 -19717.284043   8856.403211 -14918.979070    412.456413                    
V  2   8934.061055 -17583.646804 -22514.558888      0.010666                    
P  3  15807.408994  -3399.855156  20603.806137    145.767149                    
V  3  13700.147814  23724.805140  -6209.323759      0.050747                    
P  4 -15143.919567  -5858.787838 -21329.946828     84.349374                    
V  4  15388.981687 -21570.838655  -4774.265648      0.111206                    
P  5 -24636.960736   3924.732019   9295.172936   -374.628545                    
V  5 -11436.348495  -4065.143489 -28355.380617     -0.022114                    
P  6  17857.493951   3657.034642  19521.565172    413.496875                    
V  6  10002.532888  22458.218532 -13090.563500     -0.132986                    
P  7   1950.518027 -20724.550541  16370.160093    160.720872                    
V  7  14041.117689 -15425.506289 -21531.317605      0.044524                    
P  8  -7782.492389 -12585.061539  22092.481090      3.620626                    
V  8  19173.983484 -20120.513116  -5296.482142      0.001148                    
P  9 -18169.809907  18331.277401   5797.271603    208.790050                    
V  9   3087.318578  -7711.020067  31103.434566      0.026174                    
P 10 -23843.617022  -9202.408979  -8259.110572    -63.431180                    
V 10  10281.497240  -1349.938603 -28768.937768     -0.014412                    
P 11  12744.048011 -22427.330685   5242.402452   -336.445084                    
V 11   2377.580527   8665.888965  29232.420862     -0.039403                    
P 12 -11467.672049  12218.336845 -20574.107195    108.552341                    
V 12 -25688.377747  -4564.882552  11806.640411      0.020414                    
P 13  -3603.202739 -25439.641233  -6625.549831    157.822453                    
V 13   4501.465277   7203.689216 -30844.245658     -0.028502                    
P 14  14252.486131  20090.535620  -9921.364646    218.689623                    
V 14   2391.463701  12751.980345  28554.738622      0.004850                    
P 15  -9107.907140  14808.774305  19999.443390   -103.091807                    
V 15 -12020.425446 -22594.888182  11491.701023     -0.010831                    
P 16  25082.466865  -1995.488499   8994.427720   -251.144680                    
V 16  10893.223412   3464.474844 -29273.219797     -0.003970                    
P 17 -15362.077735 -18860.509005 -10760.378761     66.424755                    
V 17  -2972.262184 -13722.775183  27550.264340     -0.035986                    
P 18  10669.058832  15672.089489  19113.753197    230.927200                    
V 18 -23490.902459  -1284.491775  14103.142499      0.018526                    
P 19  11554.127207 -11404.999424  20864.718428   -333.694694                    
V 19   9324.242833  25098.596369   8921.674151     -0.033651                    
P 20   9901.542301 -14440.438605 -20124.437364     77.518365                    
V 20  25183.813218   2916.697538  10461.893810      0.012992                    
P 21   2934.460354  19120.087130  18493.591046   -270.268104                    
V 21 -15244.973911  16982.049835 -16142.213326     -0.023406                    
P 22  21923.159989  10800.293939  10742.164719    154.059685                    
V 22 -13693.080989   1597.809839  26666.967172      0.008232                    
P 23   3473.199203 -20722.508512 -15956.251122    130.936220                    
V 23   9992.377453  18071.811707 -21590.891398     -0.037959                    
P 24 -15797.903002  21337.637959    297.827270      1.826622                    
V 24  -2114.380615  -2004.333400  31727.285850     -0.006060                    
P 25   2112.127966  15167.875605 -21742.826316     58.340652                    
V 25 -27360.128553  -2605.921345  -4409.250905      0.023244                    
P 26 -14717.313043   1265.237626  21476.648920   -163.772227                    
V 26  -8857.685029 -27292.666043  -3999.011948      0.135529                    
P 28 -18819.249924 -12901.556452  14342.259597    216.902758                    
V 28  17097.940819   1521.736651  24614.521440      0.035713                    
P 29   3932.442213  25152.214622  -7592.918922    390.684459                    
V 29  -5777.055543  -8177.942699 -29838.098816      0.038900                    
P 30  26280.884802   2528.226519  -3124.371664   -274.505997                    
V 30  -3577.655797   2689.876266 -31477.759851      0.119064                    
P 31  16613.362615   1056.415260 -20570.544717    293.933643                    
V 31 -15651.825381  21307.359654 -11185.018468      0.020343                    
P 32  18377.506252  -8488.036041 -16765.838117   -519.737012                    
V 32  20921.489392   6632.801255  19897.700473     -0.034550                    
EOF
